start=new Date('2023-05-12T00:00:00.000Z').valueOf();
sats=[{"TLE_LINE2":"2 47669  53.0502 264.8762 0007453 282.8263  77.1911 15.46574386125502","MEAN_MOTION":"15.46574386","REF_FRAME":"TEME","APOAPSIS":"431.830","BSTAR":"0.00386460000000","MEAN_MOTION_DOT":"0.00200241","EPOCH":"2023-05-11T15:25:21.058176","NORAD_CAT_ID":"47669","ELEMENT_SET_NO":"999","MEAN_ELEMENT_THEORY":"SGP4","PERIOD":"93.109","LAUNCH_DATE":"2021-02-16","PERIAPSIS":"421.686","SITE":"AFETR","MEAN_MOTION_DDOT":"0.0000000000000","CLASSIFICATION_TYPE":"U","TIME_SYSTEM":"UTC","CENTER_NAME":"EARTH","TLE_LINE1":"1 47669U 21012BB  23131.64260484  .00200241  00000-0  38646-2 0  9990","OBJECT_NAME":"STARLINK-2060","ARG_OF_PERICENTER":"282.8263","REV_AT_EPOCH":"12550","ECCENTRICITY":"0.00074530","OBJECT_ID":"2021-012BB","COUNTRY_CODE":"US","INCLINATION":"53.0502","SEMIMAJOR_AXIS":"6804.893","EPHEMERIS_TYPE":"0","RA_OF_ASC_NODE":"264.8762","OBJECT_TYPE":"PAYLOAD","DECAY_DATE":null,"MEAN_ANOMALY":"77.1911","RCS_SIZE":"LARGE","GP_ID":"231609375","FILE":"3905353"},{"OBJECT_ID":"2021-012BC","ECCENTRICITY":"0.00011870","REV_AT_EPOCH":"12445","EPHEMERIS_TYPE":"0","RA_OF_ASC_NODE":"12.1236","SEMIMAJOR_AXIS":"6925.121","OBJECT_TYPE":"PAYLOAD","COUNTRY_CODE":"US","INCLINATION":"53.0546","GP_ID":"231600736","FILE":"3905210","DECAY_DATE":null,"MEAN_ANOMALY":"265.0369","RCS_SIZE":"LARGE","TIME_SYSTEM":"UTC","CENTER_NAME":"EARTH","TLE_LINE1":"1 47670U 21012BC  23130.97913449  .00036727  00000-0  24668-2 0  9998","ARG_OF_PERICENTER":"95.0755","OBJECT_NAME":"STARLINK-2062","NORAD_CAT_ID":"47670","ELEMENT_SET_NO":"999","LAUNCH_DATE":"2021-02-16","PERIOD":"95.587","MEAN_ELEMENT_THEORY":"SGP4","CLASSIFICATION_TYPE":"U","PERIAPSIS":"546.164","SITE":"AFETR","MEAN_MOTION_DDOT":"0.0000000000000","TLE_LINE2":"2 47670  53.0546  12.1236 0001187  95.0755 265.0369 15.06474177124451","MEAN_MOTION":"15.06474177","REF_FRAME":"TEME","APOAPSIS":"547.808","BSTAR":"0.00246680000000","MEAN_MOTION_DOT":"0.00036727","EPOCH":"2023-05-10T23:29:57.219936"},{"CENTER_NAME":"EARTH","TIME_SYSTEM":"UTC","OBJECT_NAME":"STARLINK-2064","ARG_OF_PERICENTER":"76.8756","TLE_LINE1":"1 47671U 21012BD  23131.95591928  .00018264  00000-0  12420-2 0  9991","REV_AT_EPOCH":"12461","OBJECT_ID":"2021-012BD","ECCENTRICITY":"0.00024980","RCS_SIZE":"LARGE","DECAY_DATE":null,"MEAN_ANOMALY":"283.2511","FILE":"3905576","GP_ID":"231634794","INCLINATION":"53.0531","COUNTRY_CODE":"US","OBJECT_TYPE":"PAYLOAD","EPHEMERIS_TYPE":"0","SEMIMAJOR_AXIS":"6925.364","RA_OF_ASC_NODE":"7.7345","REF_FRAME":"TEME","APOAPSIS":"548.959","MEAN_MOTION":"15.06395019","TLE_LINE2":"2 47671  53.0531   7.7345 0002498  76.8756 283.2511 15.06395019124617","EPOCH":"2023-05-11T22:56:31.425792","MEAN_MOTION_DOT":"0.00018264","BSTAR":"0.00124200000000","ELEMENT_SET_NO":"999","NORAD_CAT_ID":"47671","MEAN_MOTION_DDOT":"0.0000000000000","SITE":"AFETR","PERIAPSIS":"545.499","CLASSIFICATION_TYPE":"U","MEAN_ELEMENT_THEORY":"SGP4","PERIOD":"95.592","LAUNCH_DATE":"2021-02-16"},{"TLE_LINE1":"1 47672U 21012BE  23131.47029168  .00011122  00000-0  76413-3 0  9990","ARG_OF_PERICENTER":"76.7857","OBJECT_NAME":"STARLINK-2065","TIME_SYSTEM":"UTC","CENTER_NAME":"EARTH","OBJECT_TYPE":"PAYLOAD","EPHEMERIS_TYPE":"0","SEMIMAJOR_AXIS":"6925.311","RA_OF_ASC_NODE":"359.9198","INCLINATION":"53.0549","COUNTRY_CODE":"US","FILE":"3905210","GP_ID":"231601737","RCS_SIZE":"LARGE","DECAY_DATE":null,"MEAN_ANOMALY":"283.3208","ECCENTRICITY":"0.00006860","OBJECT_ID":"2021-012BE","REV_AT_EPOCH":"12465","MEAN_MOTION_DOT":"0.00011122","BSTAR":"0.00076413000000","EPOCH":"2023-05-11T11:17:13.201152","MEAN_MOTION":"15.06412187","TLE_LINE2":"2 47672  53.0549 359.9198 0000686  76.7857 283.3208 15.06412187124657","APOAPSIS":"547.651","REF_FRAME":"TEME","LAUNCH_DATE":"2021-02-16","PERIOD":"95.591","MEAN_ELEMENT_THEORY":"SGP4","CLASSIFICATION_TYPE":"U","MEAN_MOTION_DDOT":"0.0000000000000","PERIAPSIS":"546.701","SITE":"AFETR","NORAD_CAT_ID":"47672","ELEMENT_SET_NO":"999"},{"CENTER_NAME":"EARTH","TIME_SYSTEM":"UTC","ARG_OF_PERICENTER":"98.2595","OBJECT_NAME":"STARLINK-2066","TLE_LINE1":"1 47673U 21012BF  23131.91168970  .00026815  00000-0  18124-2 0  9994","ECCENTRICITY":"0.00016950","OBJECT_ID":"2021-012BF","REV_AT_EPOCH":"12459","FILE":"3905576","GP_ID":"231635796","RCS_SIZE":"LARGE","MEAN_ANOMALY":"261.8587","DECAY_DATE":null,"OBJECT_TYPE":"PAYLOAD","RA_OF_ASC_NODE":"7.9354","EPHEMERIS_TYPE":"0","SEMIMAJOR_AXIS":"6925.359","INCLINATION":"53.0538","COUNTRY_CODE":"US","APOAPSIS":"548.398","REF_FRAME":"TEME","MEAN_MOTION":"15.06396667","TLE_LINE2":"2 47673  53.0538   7.9354 0001695  98.2595 261.8587 15.06396667124597","EPOCH":"2023-05-11T21:52:49.990080","MEAN_MOTION_DOT":"0.00026815","BSTAR":"0.00181240000000","ELEMENT_SET_NO":"999","NORAD_CAT_ID":"47673","CLASSIFICATION_TYPE":"U","MEAN_MOTION_DDOT":"0.0000000000000","PERIAPSIS":"546.050","SITE":"AFETR","PERIOD":"95.592","LAUNCH_DATE":"2021-02-16","MEAN_ELEMENT_THEORY":"SGP4"},{"ELEMENT_SET_NO":"999","NORAD_CAT_ID":"47674","CLASSIFICATION_TYPE":"U","SITE":"AFETR","PERIAPSIS":"546.351","MEAN_MOTION_DDOT":"0.0000000000000","LAUNCH_DATE":"2021-02-16","PERIOD":"95.592","MEAN_ELEMENT_THEORY":"SGP4","APOAPSIS":"548.032","REF_FRAME":"TEME","MEAN_MOTION":"15.06407220","TLE_LINE2":"2 47674  53.0537   7.8698 0001214  72.4680 287.6441 15.06407220124608","EPOCH":"2023-05-11T22:12:42.371424","BSTAR":"0.00201070000000","MEAN_MOTION_DOT":"0.00029801","ECCENTRICITY":"0.00012140","OBJECT_ID":"2021-012BG","REV_AT_EPOCH":"12460","GP_ID":"231636546","FILE":"3905576","DECAY_DATE":null,"MEAN_ANOMALY":"287.6441","RCS_SIZE":"LARGE","SEMIMAJOR_AXIS":"6925.326","RA_OF_ASC_NODE":"7.8698","EPHEMERIS_TYPE":"0","OBJECT_TYPE":"PAYLOAD","COUNTRY_CODE":"US","INCLINATION":"53.0537","CENTER_NAME":"EARTH","TIME_SYSTEM":"UTC","ARG_OF_PERICENTER":"72.4680","OBJECT_NAME":"STARLINK-2067","TLE_LINE1":"1 47674U 21012BG  23131.92549041  .00029801  00000-0  20107-2 0  9990"},{"MEAN_MOTION_DOT":"0.00028533","BSTAR":"0.00192690000000","EPOCH":"2023-05-11T22:03:27.011232","MEAN_MOTION":"15.06395979","TLE_LINE2":"2 47675  53.0543   7.9057 0001665 104.2863 255.8311 15.06395979124603","REF_FRAME":"TEME","APOAPSIS":"548.379","MEAN_ELEMENT_THEORY":"SGP4","PERIOD":"95.592","LAUNCH_DATE":"2021-02-16","MEAN_MOTION_DDOT":"0.0000000000000","SITE":"AFETR","PERIAPSIS":"546.073","CLASSIFICATION_TYPE":"U","NORAD_CAT_ID":"47675","ELEMENT_SET_NO":"999","TLE_LINE1":"1 47675U 21012BH  23131.91906263  .00028533  00000-0  19269-2 0  9991","OBJECT_NAME":"STARLINK-2078","ARG_OF_PERICENTER":"104.2863","TIME_SYSTEM":"UTC","CENTER_NAME":"EARTH","INCLINATION":"53.0543","COUNTRY_CODE":"US","OBJECT_TYPE":"PAYLOAD","RA_OF_ASC_NODE":"7.9057","EPHEMERIS_TYPE":"0","SEMIMAJOR_AXIS":"6925.361","RCS_SIZE":"LARGE","DECAY_DATE":null,"MEAN_ANOMALY":"255.8311","FILE":"3905576","GP_ID":"231635294","REV_AT_EPOCH":"12460","OBJECT_ID":"2021-012BH","ECCENTRICITY":"0.00016650"},{"OBJECT_TYPE":"PAYLOAD","SEMIMAJOR_AXIS":"6925.258","EPHEMERIS_TYPE":"0","RA_OF_ASC_NODE":"259.4162","INCLINATION":"53.0543","COUNTRY_CODE":"US","FILE":"3905576","GP_ID":"231635544","RCS_SIZE":"LARGE","MEAN_ANOMALY":"262.3371","DECAY_DATE":null,"OBJECT_ID":"2021-012BJ","ECCENTRICITY":"0.00008710","REV_AT_EPOCH":"12607","TLE_LINE1":"1 47676U 21012BJ  23131.58270585  .00022143  00000-0  14996-2 0  9999","ARG_OF_PERICENTER":"97.7716","OBJECT_NAME":"STARLINK-2083","TIME_SYSTEM":"UTC","CENTER_NAME":"EARTH","LAUNCH_DATE":"2021-02-16","PERIOD":"95.590","MEAN_ELEMENT_THEORY":"SGP4","CLASSIFICATION_TYPE":"U","MEAN_MOTION_DDOT":"0.0000000000000","PERIAPSIS":"546.520","SITE":"AFETR","NORAD_CAT_ID":"47676","ELEMENT_SET_NO":"999","MEAN_MOTION_DOT":"0.00022143","BSTAR":"0.00149960000000","EPOCH":"2023-05-11T13:59:05.785440","MEAN_MOTION":"15.06429622","TLE_LINE2":"2 47676  53.0543 259.4162 0000871  97.7716 262.3371 15.06429622126071","APOAPSIS":"547.726","REF_FRAME":"TEME"},{"REV_AT_EPOCH":"12418","ECCENTRICITY":"0.00010420","OBJECT_ID":"2021-012BK","COUNTRY_CODE":"US","INCLINATION":"53.0544","RA_OF_ASC_NODE":"31.8282","EPHEMERIS_TYPE":"0","SEMIMAJOR_AXIS":"6925.110","OBJECT_TYPE":"PAYLOAD","MEAN_ANOMALY":"259.0617","DECAY_DATE":null,"RCS_SIZE":"LARGE","GP_ID":"231600487","FILE":"3905210","TIME_SYSTEM":"UTC","CENTER_NAME":"EARTH","TLE_LINE1":"1 47677U 21012BK  23131.04269004  .00033157  00000-0  22297-2 0  9995","OBJECT_NAME":"STARLINK-2090","ARG_OF_PERICENTER":"101.0489","NORAD_CAT_ID":"47677","ELEMENT_SET_NO":"999","MEAN_ELEMENT_THEORY":"SGP4","LAUNCH_DATE":"2021-02-16","PERIOD":"95.587","PERIAPSIS":"546.253","SITE":"AFETR","MEAN_MOTION_DDOT":"0.0000000000000","CLASSIFICATION_TYPE":"U","MEAN_MOTION":"15.06477870","TLE_LINE2":"2 47677  53.0544  31.8282 0001042 101.0489 259.0617 15.06477870124189","APOAPSIS":"547.697","REF_FRAME":"TEME","BSTAR":"0.00222970000000","MEAN_MOTION_DOT":"0.00033157","EPOCH":"2023-05-11T01:01:28.419456"},{"MEAN_MOTION":"15.06384747","TLE_LINE2":"2 47679  53.0555  32.0016 0001152  93.2303 266.8817 15.06384747124199","APOAPSIS":"548.058","REF_FRAME":"TEME","BSTAR":"0.00010537000000","MEAN_MOTION_DOT":"0.00001288","EPOCH":"2023-05-11T00:08:23.251488","NORAD_CAT_ID":"47679","ELEMENT_SET_NO":"999","PERIOD":"95.593","LAUNCH_DATE":"2021-02-16","MEAN_ELEMENT_THEORY":"SGP4","CLASSIFICATION_TYPE":"U","SITE":"AFETR","PERIAPSIS":"546.463","MEAN_MOTION_DDOT":"0.0000000000000","TIME_SYSTEM":"UTC","CENTER_NAME":"EARTH","TLE_LINE1":"1 47679U 21012BM  23131.00582467  .00001288  00000-0  10537-3 0  9999","ARG_OF_PERICENTER":"93.2303","OBJECT_NAME":"STARLINK-2095","OBJECT_ID":"2021-012BM","ECCENTRICITY":"0.00011520","REV_AT_EPOCH":"12419","RA_OF_ASC_NODE":"32.0016","EPHEMERIS_TYPE":"0","SEMIMAJOR_AXIS":"6925.395","OBJECT_TYPE":"PAYLOAD","COUNTRY_CODE":"US","INCLINATION":"53.0555","GP_ID":"231600737","FILE":"3905210","DECAY_DATE":null,"MEAN_ANOMALY":"266.8817","RCS_SIZE":"LARGE"}];
